     2.100          NAVIGATION                              RINEX VERSION / TYPE
fic2rin                                 04/24/2009 02:54:35 PGM / RUN BY / DATE
                                                            END OF HEADER
 2 09  4 23 18  0  0.0  .153580680490D-03  .113686837722D-12  .000000000000D+00
     .140000000000D+02  .111312500000D+03  .476269838550D-08  .221019904314D+01
     .568293035030D-05  .905971589964D-02  .104028731585D-04  .515365561867D+04
     .410400000000D+06  .316649675369D-07  .216221912202D+00  .195577740669D-06
     .942003233644D+00  .164000000000D+03  .278865460273D+01 -.814033907780D-08
     .197151069276D-09  .100000000000D+01  .152800000000D+04  .000000000000D+00
     .240000000000D+01  .000000000000D+00 -.172294676304D-07  .140000000000D+02
     .403206000000D+06  .400000000000D+01
 3 09  4 23 18  0  0.0  .383557286114D-03  .522959453519D-11  .000000000000D+00
     .580000000000D+02 -.613437500000D+02  .537843831926D-08  .185470768381D+01
    -.318512320518D-05  .117994365282D-01  .855699181557D-05  .515375006676D+04
     .410400000000D+06 -.221654772758D-06 -.930730551612D+00 -.176951289177D-06
     .926107746574D+00  .197375000000D+03  .897907678945D+00 -.855892794227D-08
    -.537165232231D-09  .100000000000D+01  .152800000000D+04  .000000000000D+00
     .340000000000D+01  .000000000000D+00 -.419095158577D-08  .580000000000D+02
     .403206000000D+06  .400000000000D+01
 4 09  4 23 18  0  0.0 -.632931478322D-04 -.151203494170D-10  .000000000000D+00
     .101000000000D+03  .100468750000D+03  .475912680816D-08 -.121462380941D+01
     .523775815964D-05  .858520169277D-02  .981427729130D-05  .515373539162D+04
     .410400000000D+06  .128522515297D-06  .234628082687D+00 -.614672899246D-07
     .941218019680D+00  .173406250000D+03  .484555552827D+00 -.818212653270D-08
     .361800784741D-09  .100000000000D+01  .152800000000D+04  .000000000000D+00
     .340000000000D+01  .000000000000D+00 -.605359673500D-08  .101000000000D+03
     .403206000000D+06  .400000000000D+01
 5 09  4 23 18  0  0.0 -.459710136056D-04 -.160298441187D-10  .000000000000D+00
     .510000000000D+02  .228125000000D+02  .527700552275D-08 -.154510215006D+01
     .128149986267D-05  .953433185350D-02  .425986945629D-05  .515356888199D+04
     .410400000000D+06  .186264514923D-06 -.196162530180D+01  .184401869774D-06
     .945481268713D+00  .288218750000D+03  .130004300065D+01 -.851321175230D-08
     .148220459691D-09  .100000000000D+01  .152800000000D+04  .000000000000D+00
     .240000000000D+01  .630000000000D+02 -.419095158577D-08  .510000000000D+02
     .403206000000D+06  .400000000000D+01
 6 09  4 23 18  0  0.0  .934507697821D-04  .167119651451D-10  .000000000000D+00
     .160000000000D+02 -.468437500000D+02  .513628537547D-08 -.194528979384D+01
    -.216811895370D-05  .593235658016D-02  .923685729504D-05  .515370601845D+04
     .410400000000D+06  .782310962677D-07 -.863404464924D+00  .800937414169D-07
     .933657357685D+00  .183593750000D+03 -.139612254908D+01 -.833213278106D-08
    -.492163357722D-09  .100000000000D+01  .152800000000D+04  .000000000000D+00
     .240000000000D+01  .000000000000D+00 -.465661287308D-08  .160000000000D+02
     .403206000000D+06  .400000000000D+01
 7 09  4 23 18  0  0.0  .199484638870D-04 -.568434188608D-12  .000000000000D+00
     .150000000000D+02  .687500000000D+01  .411374278247D-08  .470475122846D+00
     .134110450745D-06  .244985369500D-02  .114869326353D-04  .515367784691D+04
     .410400000000D+06  .353902578354D-07 -.291227769772D+01 -.428408384323D-07
     .967263674186D+00  .159812500000D+03  .288668008236D+01 -.781996859022D-08
     .278940190407D-09  .100000000000D+01  .152800000000D+04  .000000000000D+00
     .240000000000D+01  .000000000000D+00 -.107102096081D-07  .150000000000D+02
     .403206000000D+06  .400000000000D+01
 8 09  4 23 18  0  0.0 -.199824571609D-03 -.170530256582D-11  .000000000000D+00
     .910000000000D+02  .125937500000D+02  .368408202823D-08 -.244990506369D+00
     .450760126114D-06  .105250565102D-01  .113639980555D-04  .515366116333D+04
     .410400000000D+06  .141561031342D-06 -.285265359970D+01 -.819563865662D-07
     .988443698270D+00  .176750000000D+03  .298572093540D+01 -.770210653794D-08
     .320013329840D-09  .100000000000D+01  .152800000000D+04  .000000000000D+00
     .340000000000D+01  .000000000000D+00 -.372529029846D-08  .910000000000D+02
     .403206000000D+06  .400000000000D+01
 9 09  4 23 18  0  0.0  .522653572261D-04  .193267624127D-11  .000000000000D+00
     .950000000000D+02  .183125000000D+02  .408195574413D-08 -.486290243049D+00
     .104866921902D-05  .203939294443D-01  .120848417282D-04  .515364202309D+04
     .410400000000D+06 -.229105353355D-06 -.294650796049D+01  .214204192162D-06
     .976208446863D+00  .157093750000D+03  .146914633449D+01 -.811855245601D-08
     .436089593453D-09  .100000000000D+01  .152800000000D+04  .000000000000D+00
     .240000000000D+01  .000000000000D+00 -.558793544769D-08  .950000000000D+02
     .403206000000D+06  .400000000000D+01
10 09  4 23 18  0  0.0 -.148531980813D-04 -.682121026330D-12  .000000000000D+00
     .930000000000D+02  .177812500000D+02  .510378402166D-08  .309699724173D+01
     .810250639915D-06  .863328645937D-02  .114366412163D-05  .515358460617D+04
     .410400000000D+06 -.838190317154D-07  .130046424645D+01 -.163912773132D-06
     .958570602416D+00  .357937500000D+03  .622874675196D+00 -.848999649958D-08
     .596453416107D-10  .100000000000D+01  .152800000000D+04  .000000000000D+00
     .240000000000D+01  .000000000000D+00 -.279396772385D-08  .930000000000D+02
     .403206000000D+06  .400000000000D+01
11 09  4 23 18  0  0.0  .698491930962D-07 -.147792889038D-11  .000000000000D+00
     .560000000000D+02  .652187500000D+02  .597239163123D-08  .297951667934D+00
     .345893204212D-05  .927863304969D-02  .115334987640D-04  .515368695450D+04
     .410400000000D+06  .372529029846D-08  .179426565951D-01  .158324837685D-06
     .890108101947D+00  .121750000000D+03  .694811946964D+00 -.878072289521D-08
     .625026034843D-10  .100000000000D+01  .152800000000D+04  .000000000000D+00
     .240000000000D+01  .000000000000D+00 -.116415321827D-07  .560000000000D+02
     .403206000000D+06  .400000000000D+01
12 09  4 23 18  0  0.0 -.290438998491D-03  .488853402203D-11  .000000000000D+00
     .650000000000D+02  .818750000000D+01  .487163149443D-08  .548672218149D+00
     .279396772385D-06  .336804520339D-02  .442937016487D-05  .515366278267D+04
     .410400000000D+06  .465661287308D-07 -.186063170621D+01 -.521540641785D-07
     .966260652200D+00  .297218750000D+03 -.747435926392D+00 -.836106255753D-08
     .503592405216D-10  .100000000000D+01  .152800000000D+04  .000000000000D+00
     .240000000000D+01  .000000000000D+00 -.116415321827D-07  .650000000000D+02
     .403206000000D+06  .400000000000D+01
13 09  4 23 18  0  0.0  .295286532491D-03  .102318153949D-11  .000000000000D+00
     .570000000000D+02 -.121093750000D+03  .376729978030D-08  .285716099659D+01
    -.612065196037D-05  .405079114717D-02  .841915607452D-05  .515372403336D+04
     .410400000000D+06  .782310962677D-07  .238057670298D+01 -.987201929092D-07
     .994982368621D+00  .231812500000D+03  .153992297533D+01 -.771317842770D-08
    -.443947063606D-09  .100000000000D+01  .152800000000D+04  .000000000000D+00
     .240000000000D+01  .000000000000D+00 -.111758708954D-07  .570000000000D+02
     .403206000000D+06  .400000000000D+01
14 09  4 23 18  0  0.0 -.121356453747D-03  .579802872380D-11  .000000000000D+00
     .640000000000D+02 -.129500000000D+03  .388016162431D-08  .261404676458D+01
    -.672787427902D-05  .438230193686D-02  .908225774765D-05  .515359830856D+04
     .410400000000D+06  .186264514923D-07  .236128150986D+01 -.763684511185D-07
     .988496413060D+00  .215437500000D+03 -.213353358210D+01 -.775032283206D-08
    -.516807241382D-09  .100000000000D+01  .152800000000D+04  .000000000000D+00
     .240000000000D+01  .000000000000D+00 -.931322574615D-08  .640000000000D+02
     .403206000000D+06  .400000000000D+01
15 09  4 23 18  0  0.0 -.284374225885D-03 -.420641299570D-11  .000000000000D+00
     .620000000000D+02 -.111781250000D+03  .474055460598D-08  .285406383517D+01
    -.572577118874D-05  .143445294816D-02  .825710594654D-05  .515360818291D+04
     .410400000000D+06 -.335276126862D-07  .230987114971D+01  .968575477600D-07
     .956511030272D+00  .219781250000D+03 -.511078188847D+00 -.819319842246D-08
    -.420731810883D-09  .100000000000D+01  .152800000000D+04  .000000000000D+00
     .240000000000D+01  .000000000000D+00 -.977888703346D-08  .620000000000D+02
     .403206000000D+06  .400000000000D+01
16 09  4 23 18  0  0.0  .569834373891D-04 -.318323145621D-11  .000000000000D+00
     .790000000000D+02  .143437500000D+02  .476055543910D-08 -.197391439298D+01
     .784173607826D-06  .532912416384D-02  .475347042084D-05  .515379297256D+04
     .410400000000D+06 -.484287738800D-07 -.184372587086D+01  .353902578354D-07
     .967726920362D+00  .295125000000D+03 -.364147161791D+00 -.824534345165D-08
     .222509268404D-09  .100000000000D+01  .152800000000D+04  .000000000000D+00
     .240000000000D+01  .000000000000D+00 -.977888703346D-08  .790000000000D+02
     .403206000000D+06  .400000000000D+01
17 09  4 23 18  0  0.0  .556185841560D-04  .181898940355D-11  .000000000000D+00
     .550000000000D+02 -.419375000000D+02  .435446709532D-08 -.305180229239D+01
    -.206381082535D-05  .444413535297D-02  .101439654827D-04  .515367338181D+04
     .410400000000D+06 -.428408384323D-07 -.801092110096D+00 -.223517417908D-07
     .959671326849D+00  .184312500000D+03 -.266570879930D+01 -.789675750308D-08
    -.413945813933D-09  .100000000000D+01  .152800000000D+04  .000000000000D+00
     .240000000000D+01  .000000000000D+00 -.102445483208D-07  .550000000000D+02
     .403206000000D+06  .400000000000D+01
